{
  "type": "FeatureCollection",
  "features": [
    {
      "type": "Feature",
      "properties": {
        "norad_id": 66596,
        "name": "STARLINK-35811",
        "group": "last-30-days",
        "lat": -16.445697736252246,
        "lon": 6.726381308810437,
        "alt_km": 445.1785420103488,
        "timestamp": "2025-12-16T23:36:34.923084+00:00",
        "meta_object_name": "STARLINK-35811",
        "meta_object_id": "2025-270J",
        "meta_epoch": "2025-12-16T06:00:02.999808",
        "meta_mean_motion": 15.40697305,
        "meta_eccentricity": 0.00020396,
        "meta_inclination": 42.9996,
        "meta_ra_of_asc_node": 172.4875,
        "meta_arg_of_pericenter": 268.7688,
        "meta_mean_anomaly": 181.3788,
        "meta_ephemeris_type": 0,
        "meta_classification_type": "U",
        "meta_norad_cat_id": 66596,
        "meta_element_set_no": 999,
        "meta_rev_at_epoch": 507,
        "meta_bstar": 5.1585147e-05,
        "meta_mean_motion_dot": 1.851e-05,
        "meta_mean_motion_ddot": 0,
        "tle_line1": "1 66596U 25270J   25350.25003472  .00001851  00000+0  51585-4 0  9998",
        "tle_line2": "2 66596  42.9996 172.4875 0002039 268.7688 181.3788 15.40697305  5074"
      },
      "geometry": {
        "type": "Point",
        "coordinates": [
          6.726381308810437,
          -16.445697736252246
        ]
      }
    },
    {
      "type": "Feature",
      "properties": {
        "norad_id": 66597,
        "name": "STARLINK-35820",
        "group": "last-30-days",
        "lat": -41.0044283186991,
        "lon": 57.047815783099146,
        "alt_km": 446.19179466664264,
        "timestamp": "2025-12-16T23:36:34.923095+00:00",
        "meta_object_name": "STARLINK-35820",
        "meta_object_id": "2025-270K",
        "meta_epoch": "2025-12-16T06:00:02.999808",
        "meta_mean_motion": 15.40698176,
        "meta_eccentricity": 0.0001783,
        "meta_inclination": 42.9995,
        "meta_ra_of_asc_node": 172.3664,
        "meta_arg_of_pericenter": 267.075,
        "meta_mean_anomaly": 232.8256,
        "meta_ephemeris_type": 0,
        "meta_classification_type": "U",
        "meta_norad_cat_id": 66597,
        "meta_element_set_no": 999,
        "meta_rev_at_epoch": 507,
        "meta_bstar": -5.2231267e-05,
        "meta_mean_motion_dot": -2.485e-05,
        "meta_mean_motion_ddot": 0,
        "tle_line1": "1 66597U 25270K   25350.25003472 -.00002485  00000+0 -52231-4 0  9994",
        "tle_line2": "2 66597  42.9995 172.3664 0001783 267.0750 232.8256 15.40698176  5075"
      },
      "geometry": {
        "type": "Point",
        "coordinates": [
          57.047815783099146,
          -41.0044283186991
        ]
      }
    },
    {
      "type": "Feature",
      "properties": {
        "norad_id": 66598,
        "name": "STARLINK-35981",
        "group": "last-30-days",
        "lat": 4.063134877990363,
        "lon": 172.23621678601796,
        "alt_km": 412.9661966897165,
        "timestamp": "2025-12-16T23:36:34.923105+00:00",
        "meta_object_name": "STARLINK-35981",
        "meta_object_id": "2025-270L",
        "meta_epoch": "2025-12-15T05:50:49.994016",
        "meta_mean_motion": 15.50578636,
        "meta_eccentricity": 0.00015186,
        "meta_inclination": 42.999,
        "meta_ra_of_asc_node": 178.0473,
        "meta_arg_of_pericenter": 290.6463,
        "meta_mean_anomaly": 69.4235,
        "meta_ephemeris_type": 0,
        "meta_classification_type": "U",
        "meta_norad_cat_id": 66598,
        "meta_element_set_no": 999,
        "meta_rev_at_epoch": 457,
        "meta_bstar": 0.001433442,
        "meta_mean_motion_dot": 0.00084665,
        "meta_mean_motion_ddot": 0,
        "tle_line1": "1 66598U 25270L   25349.24363419  .00084665  00000+0  14334-2 0  9990",
        "tle_line2": "2 66598  42.9990 178.0473 0001518 290.6463  69.4235 15.50578636  4575"
      },
      "geometry": {
        "type": "Point",
        "coordinates": [
          172.23621678601796,
          4.063134877990363
        ]
      }
    },
    {
      "type": "Feature",
      "properties": {
        "norad_id": 66599,
        "name": "STARLINK-35930",
        "group": "last-30-days",
        "lat": 4.912848949187039,
        "lon": 173.1574280244012,
        "alt_km": 413.69190646269,
        "timestamp": "2025-12-16T23:36:34.923117+00:00",
        "meta_object_name": "STARLINK-35930",
        "meta_object_id": "2025-270M",
        "meta_epoch": "2025-12-16T05:01:41.640672",
        "meta_mean_motion": 15.50605197,
        "meta_eccentricity": 6.089e-05,
        "meta_inclination": 42.9985,
        "meta_ra_of_asc_node": 172.3949,
        "meta_arg_of_pericenter": 278.5613,
        "meta_mean_anomaly": 81.5178,
        "meta_ephemeris_type": 0,
        "meta_classification_type": "U",
        "meta_norad_cat_id": 66599,
        "meta_element_set_no": 999,
        "meta_rev_at_epoch": 488,
        "meta_bstar": 0.0012356688,
        "meta_mean_motion_dot": 0.00072894,
        "meta_mean_motion_ddot": 0,
        "tle_line1": "1 66599U 25270M   25350.20950973  .00072894  00000+0  12357-2 0  9990",
        "tle_line2": "2 66599  42.9985 172.3949 0000608 278.5613  81.5178 15.50605197  4884"
      },
      "geometry": {
        "type": "Point",
        "coordinates": [
          173.1574280244012,
          4.912848949187039
        ]
      }
    },
    {
      "type": "Feature",
      "properties": {
        "norad_id": 66600,
        "name": "STARLINK-35980",
        "group": "last-30-days",
        "lat": 6.206615503993792,
        "lon": 174.561712502258,
        "alt_km": 413.66509769389904,
        "timestamp": "2025-12-16T23:36:34.923130+00:00",
        "meta_object_name": "STARLINK-35980",
        "meta_object_id": "2025-270N",
        "meta_epoch": "2025-12-16T05:01:11.555328",
        "meta_mean_motion": 15.50601395,
        "meta_eccentricity": 0.00025479,
        "meta_inclination": 42.9985,
        "meta_ra_of_asc_node": 172.3917,
        "meta_arg_of_pericenter": 272.6766,
        "meta_mean_anomaly": 87.3803,
        "meta_ephemeris_type": 0,
        "meta_classification_type": "U",
        "meta_norad_cat_id": 66600,
        "meta_element_set_no": 999,
        "meta_rev_at_epoch": 478,
        "meta_bstar": 0.0010160837,
        "meta_mean_motion_dot": 0.00059775,
        "meta_mean_motion_ddot": 0,
        "tle_line1": "1 66600U 25270N   25350.20916152  .00059775  00000+0  10161-2 0  9998",
        "tle_line2": "2 66600  42.9985 172.3917 0002547 272.6766  87.3803 15.50601395  4784"
      },
      "geometry": {
        "type": "Point",
        "coordinates": [
          174.561712502258,
          6.206615503993792
        ]
      }
    },
    {
      "type": "Feature",
      "properties": {
        "norad_id": 66601,
        "name": "STARLINK-35978",
        "group": "last-30-days",
        "lat": -39.3811220551556,
        "lon": 106.29485531585661,
        "alt_km": 446.43834405839425,
        "timestamp": "2025-12-16T23:36:34.923146+00:00",
        "meta_object_name": "STARLINK-35978",
        "meta_object_id": "2025-270P",
        "meta_epoch": "2025-12-16T06:00:02.999808",
        "meta_mean_motion": 15.40685322,
        "meta_eccentricity": 0.00016737,
        "meta_inclination": 42.9995,
        "meta_ra_of_asc_node": 172.2752,
        "meta_arg_of_pericenter": 246.4015,
        "meta_mean_anomaly": 290.7847,
        "meta_ephemeris_type": 0,
        "meta_classification_type": "U",
        "meta_norad_cat_id": 66601,
        "meta_element_set_no": 999,
        "meta_rev_at_epoch": 480,
        "meta_bstar": -1.0264645e-05,
        "meta_mean_motion_dot": -7.32e-06,
        "meta_mean_motion_ddot": 0,
        "tle_line1": "1 66601U 25270P   25350.25003472 -.00000732  00000+0 -10265-4 0  9994",
        "tle_line2": "2 66601  42.9995 172.2752 0001673 246.4015 290.7847 15.40685322  4809"
      },
      "geometry": {
        "type": "Point",
        "coordinates": [
          106.29485531585661,
          -39.3811220551556
        ]
      }
    },
    {
      "type": "Feature",
      "properties": {
        "norad_id": 66602,
        "name": "STARLINK-36050",
        "group": "last-30-days",
        "lat": -24.196323778768544,
        "lon": 17.057138484781373,
        "alt_km": 445.5666383233993,
        "timestamp": "2025-12-16T23:36:34.923157+00:00",
        "meta_object_name": "STARLINK-36050",
        "meta_object_id": "2025-270Q",
        "meta_epoch": "2025-12-16T06:00:02.999808",
        "meta_mean_motion": 15.40697014,
        "meta_eccentricity": 0.0001871,
        "meta_inclination": 42.9996,
        "meta_ra_of_asc_node": 172.4565,
        "meta_arg_of_pericenter": 264.1726,
        "meta_mean_anomaly": 198.4045,
        "meta_ephemeris_type": 0,
        "meta_classification_type": "U",
        "meta_norad_cat_id": 66602,
        "meta_element_set_no": 999,
        "meta_rev_at_epoch": 486,
        "meta_bstar": -8.733206e-06,
        "meta_mean_motion_dot": -6.68e-06,
        "meta_mean_motion_ddot": 0,
        "tle_line1": "1 66602U 25270Q   25350.25003472 -.00000668  00000+0 -87332-5 0  9993",
        "tle_line2": "2 66602  42.9996 172.4565 0001871 264.1726 198.4045 15.40697014  4862"
      },
      "geometry": {
        "type": "Point",
        "coordinates": [
          17.057138484781373,
          -24.196323778768544
        ]
      }
    }
  ]
}